HADES-R                 
1 62690U 25009CK  25151.18497440  .00033107  00000+0  11935-2 0  9994
2 62690  97.4089 232.0314 0004663 129.9782 230.1868 15.28460096 20713
