[
  {
    "OBJECT_NAME": "HADES-R",
    "OBJECT_ID": "2025-009CK",
    "EPOCH": "2025-05-31T04:26:21.788160",
    "MEAN_MOTION": 15.28460096,
    "ECCENTRICITY": 0.0004663,
    "INCLINATION": 97.4089,
    "RA_OF_ASC_NODE": 232.0314,
    "ARG_OF_PERICENTER": 129.9782,
    "MEAN_ANOMALY": 230.1868,
    "EPHEMERIS_TYPE": 0,
    "CLASSIFICATION_TYPE": "U",
    "NORAD_CAT_ID": 62690,
    "ELEMENT_SET_NO": 999,
    "REV_AT_EPOCH": 2071,
    "BSTAR": 0.0011935,
    "MEAN_MOTION_DOT": 0.00033107,
    "MEAN_MOTION_DDOT": 0
  }
]